OBJECT_NAME,OBJECT_ID,EPOCH,MEAN_MOTION,ECCENTRICITY,INCLINATION,RA_OF_ASC_NODE,ARG_OF_PERICENTER,MEAN_ANOMALY,EPHEMERIS_TYPE,CLASSIFICATION_TYPE,NORAD_CAT_ID,ELEMENT_SET_NO,REV_AT_EPOCH,BSTAR,MEAN_MOTION_DOT,MEAN_MOTION_DDOT
ASNARO-2,2018-007A,2026-06-06T19:13:34.963104,15.22445139,.00018597,97.3978,164.8905,92.4479,267.6970,0,U,43152,999,46583,.48571448E-3,.11175E-3,0
JILIN-1 07,2018-008E,2026-06-06T22:06:21.851136,15.34550913,.00102591,97.1776,178.1246,95.3509,264.8906,0,U,43159,999,46342,.31178278E-3,.10379E-3,0
JILIN-1 08,2018-008F,2026-06-06T21:57:12.831840,15.33591814,.00079925,97.1808,177.4455,107.8293,252.3823,0,U,43160,999,46337,.26314549E-3,.8478E-4,0
S-NET D,2018-014G,2026-06-06T23:18:52.200864,15.16575658,.00097621,97.5367,62.8258,60.8783,299.3426,0,U,43186,999,45721,.30204289E-3,.5836E-4,0
S-NET B,2018-014H,2026-06-06T15:40:00.646464,15.16542688,.00103696,97.5374,62.4955,57.5626,302.6608,0,U,43187,999,45716,.29531409E-3,.57E-4,0
S-NET A,2018-014J,2026-06-06T23:17:19.936032,15.16582990,.00102681,97.5379,63.0181,57.1418,303.0802,0,U,43188,999,45721,.29962556E-3,.5791E-4,0
S-NET C,2018-014K,2026-06-06T15:45:30.909600,15.16534533,.00114699,97.5398,62.7796,51.0646,309.1608,0,U,43189,999,45571,.29814405E-3,.5756E-4,0
PAZ,2018-020A,2026-06-06T23:07:08.014080,15.19159243,.00016377,97.4449,165.4945,85.9399,274.2023,0,U,43215,999,45945,.82595423E-4,.1668E-4,0
GOES 17,2018-022A,2026-06-06T21:36:12.042432,1.00272493,.00006909,0.9103,85.8849,7.1097,36.8795,0,U,43226,999,3032,0,-.169E-5,0
LKW-4,2018-025A,2026-06-06T10:39:12.212640,15.61419011,.00019629,97.6343,327.4833,350.9866,9.1356,0,U,43236,999,45835,.65895556E-3,.56372E-3,0
ZHUHAI-1 OVS-02,2018-040B,2026-06-06T22:18:27.109152,15.24886418,.00017483,97.0394,175.7684,317.7869,42.3235,0,U,43440,999,45115,.35233069E-3,.8699E-4,0
ZHUHAI-1 OHS-02,2018-040C,2026-06-06T22:05:11.754816,15.25731419,.00072898,97.0377,182.6890,264.7109,95.3299,0,U,43441,999,11271,.34588488E-3,.8764E-4,0
GAOFEN-6,2018-048A,2026-06-06T23:22:56.833824,14.76620357,.00112209,97.7758,221.0328,202.0518,158.0211,0,U,43484,999,43188,.78682128E-4,.501E-5,0
LUOJIA-1 01,2018-048B,2026-06-06T22:44:54.966624,14.87244785,.00096584,97.8097,236.2998,147.8060,212.3747,0,U,43485,999,43269,.19121215E-3,.167E-4,0
PAKTES 1A,2018-056A,2026-06-06T22:12:57.972672,14.99061999,.0022455,98.1305,313.9741,138.3332,221.9605,0,U,43529,999,43038,.41460664E-3,.4993E-4,0
PRSS-1,2018-056B,2026-06-06T22:14:56.664672,14.81970708,.00017785,97.7818,226.0805,76.1390,284.0021,0,U,43530,999,42691,.57194355E-4,.402E-5,0
HAIYANG-1C,2018-068A,2026-06-06T22:04:12.950976,14.34175697,.00118812,98.5187,230.3759,121.5775,238.6572,0,U,43609,999,40561,.50485676E-4,.98E-6,0
SSTL S1-4,2018-071A,2026-06-06T22:08:44.585664,14.96178265,.00012335,97.5032,29.9636,108.6082,251.5274,0,U,43618,999,42140,.11820582E-3,.1277E-4,0
HAIYANG-2B,2018-081A,2026-06-06T22:26:27.671136,13.79308205,.00008616,99.3287,166.8463,17.8003,342.3179,0,U,43655,999,38351,-.11917854E-3,-.166E-5,0
CFOSAT,2018-083A,2026-06-06T22:21:05.292864,15.16311126,.00024103,97.3607,162.7650,98.2728,261.8779,0,U,43662,999,42088,.18413555E-3,.3503E-4,0
TEN-KOH,2018-084G,2026-06-06T19:17:50.643168,15.02899371,.00103757,98.0783,349.7293,147.4473,212.7392,0,U,43677,999,41460,.22627408E-3,.2973E-4,0
DIWATA-2B,2018-084H,2026-06-06T21:35:42.051264,15.00404193,.0011925,98.1164,353.6626,204.0922,155.9744,0,U,43678,999,41467,.27008082E-3,.3333E-4,0
STARS-AO,2018-084J,2026-06-06T20:23:25.762272,15.16938409,.00021643,98.0518,11.1844,159.7090,200.4228,0,U,43679,999,41590,.35565223E-3,.6942E-4,0
AUTCUBE 2,2018-084K,2026-06-06T13:29:07.100736,15.10019248,.00105258,98.0723,3.1733,81.1341,279.1078,0,U,43681,999,41532,.27731046E-3,.4442E-4,0
METOP-C,2018-087A,2026-06-06T22:22:26.553792,14.21509399,.00013754,98.6647,217.7229,140.6434,219.4844,0,U,43689,999,39337,.69208802E-4,.108E-5,0
ES'HAIL 2,2018-090A,2026-06-06T23:50:17.028096,1.00273570,.00019229,0.0130,30.8502,80.0087,167.9158,0,U,43700,999,2757,0,.158E-5,0
MOHAMMED VI-B,2018-095A,2026-06-06T22:45:08.538336,14.77102916,.00011951,97.9553,230.4137,87.2263,272.9084,0,U,43717,999,40667,.62671066E-4,.392E-5,0
HYSIS,2018-096A,2026-06-06T22:13:05.746080,14.78672992,.00016047,97.9838,224.7537,112.3262,247.8120,0,U,43719,999,40590,.11291022E-3,.776E-5,0
COSMOS 2530 (RODNIK-S 16),2018-097A,2026-06-06T21:53:23.731008,12.42881113,.00205439,82.5143,228.6569,61.1644,299.1495,0,U,43751,999,34101,.13922654E-3,.29E-6,0
