ASNARO-2                
1 43152U 18007A   26157.80109911  .00011175  00000+0  48571-3 0  9993
2 43152  97.3978 164.8905 0001859  92.4479 267.6970 15.22445139465830
JILIN-1 07              
1 43159U 18008E   26157.92108624  .00010379  00000+0  31178-3 0  9994
2 43159  97.1776 178.1246 0010259  95.3509 264.8906 15.34550913463428
JILIN-1 08              
1 43160U 18008F   26157.91473185  .00008478  00000+0  26315-3 0  9996
2 43160  97.1808 177.4455 0007992 107.8293 252.3823 15.33591814463377
S-NET D                 
1 43186U 18014G   26157.97143751  .00005836  00000+0  30204-3 0  9997
2 43186  97.5367  62.8258 0009762  60.8783 299.3426 15.16575658457211
S-NET B                 
1 43187U 18014H   26157.65278526  .00005700  00000+0  29531-3 0  9993
2 43187  97.5374  62.4955 0010369  57.5626 302.6608 15.16542688457165
S-NET A                 
1 43188U 18014J   26157.97036963  .00005791  00000+0  29963-3 0  9995
2 43188  97.5379  63.0181 0010268  57.1418 303.0802 15.16582990457219
S-NET C                 
1 43189U 18014K   26157.65660775  .00005756  00000+0  29814-3 0  9991
2 43189  97.5398  62.7796 0011469  51.0646 309.1608 15.16534533455713
PAZ                     
1 43215U 18020A   26157.96328720  .00001668  00000+0  82595-4 0  9997
2 43215  97.4449 165.4945 0001637  85.9399 274.2023 15.19159243459455
GOES 17                 
1 43226U 18022A   26157.90013938 -.00000169  00000+0  00000+0 0  9999
2 43226   0.9103  85.8849 0000690   7.1097  36.8795  1.00272493 30327
LKW-4                   
1 43236U 18025A   26157.44389135  .00056372  00000+0  65896-3 0  9991
2 43236  97.6343 327.4833 0001962 350.9866   9.1356 15.61419011458355
ZHUHAI-1 OVS-02         
1 43440U 18040B   26157.92948043  .00008699  00000+0  35233-3 0  9998
2 43440  97.0394 175.7684 0001748 317.7869  42.3235 15.24886418451150
ZHUHAI-1 OHS-02         
1 43441U 18040C   26157.92027494  .00008764  00000+0  34588-3 0  9992
2 43441  97.0377 182.6890 0007289 264.7109  95.3299 15.25731419112717
GAOFEN-6                
1 43484U 18048A   26157.97426891  .00000501  00000+0  78682-4 0  9991
2 43484  97.7758 221.0328 0011220 202.0518 158.0211 14.76620357431883
LUOJIA-1 01             
1 43485U 18048B   26157.94785841  .00001670  00000+0  19121-3 0  9992
2 43485  97.8097 236.2998 0009658 147.8060 212.3747 14.87244785432699
PAKTES 1A               
1 43529U 18056A   26157.92567098  .00004993  00000+0  41461-3 0  9993
2 43529  98.1305 313.9741 0022455 138.3332 221.9605 14.99061999430380
PRSS-1                  
1 43530U 18056B   26157.92704473  .00000402  00000+0  57194-4 0  9997
2 43530  97.7818 226.0805 0001778  76.1390 284.0021 14.81970708426913
HAIYANG-1C              
1 43609U 18068A   26157.91959434  .00000098  00000+0  50486-4 0  9993
2 43609  98.5187 230.3759 0011881 121.5775 238.6572 14.34175697405614
SSTL S1-4               
1 43618U 18071A   26157.92273826  .00001277  00000+0  11821-3 0  9991
2 43618  97.5032  29.9636 0001233 108.6082 251.5274 14.96178265421405
HAIYANG-2B              
1 43655U 18081A   26157.93504249 -.00000166  00000+0 -11918-3 0  9995
2 43655  99.3287 166.8463 0000861  17.8003 342.3179 13.79308205383518
CFOSAT                  
1 43662U 18083A   26157.93131126  .00003503  00000+0  18414-3 0  9999
2 43662  97.3607 162.7650 0002410  98.2728 261.8779 15.16311126420884
TEN-KOH                 
1 43677U 18084G   26157.80405837  .00002973  00000+0  22627-3 0  9996
2 43677  98.0783 349.7293 0010375 147.4473 212.7392 15.02899371414603
DIWATA-2B               
1 43678U 18084H   26157.89979226  .00003333  00000+0  27008-3 0  9993
2 43678  98.1164 353.6626 0011925 204.0922 155.9744 15.00404193414671
STARS-AO                
1 43679U 18084J   26157.84960373  .00006942  00000+0  35565-3 0  9998
2 43679  98.0518  11.1844 0002164 159.7090 200.4228 15.16938409415908
AUTCUBE 2               
1 43681U 18084K   26157.56188774  .00004442  00000+0  27731-3 0  9996
2 43681  98.0723   3.1733 0010525  81.1341 279.1078 15.10019248415321
METOP-C                 
1 43689U 18087A   26157.93225178  .00000108  00000+0  69209-4 0  9990
2 43689  98.6647 217.7229 0001375 140.6434 219.4844 14.21509399393370
ES'HAIL 2               
1 43700U 18090A   26157.99325264  .00000158  00000+0  00000+0 0  9995
2 43700   0.0130  30.8502 0001922  80.0087 167.9158  1.00273570 27578
MOHAMMED VI-B           
1 43717U 18095A   26157.94801549  .00000392  00000+0  62671-4 0  9995
2 43717  97.9553 230.4137 0001195  87.2263 272.9084 14.77102916406679
HYSIS                   
1 43719U 18096A   26157.92576095  .00000776  00000+0  11291-3 0  9998
2 43719  97.9838 224.7537 0001604 112.3262 247.8120 14.78672992405905
COSMOS 2530 (RODNIK-S *)
1 43751U 18097A   26157.91208022  .00000029  00000+0  13923-3 0  9991
2 43751  82.5143 228.6569 0020543  61.1644 299.1495 12.42881113341018
